STARLINK-36889          
1 68006U 26039W   26062.58336806 -.01141877  43622-3 -17025-2 0  9993
2 68006  42.9993  92.9323 0001816 280.4569 358.8656 16.03915477  1898
STARLINK-36592          
1 68007U 26039X   26062.58336806 -.01135742  43247-3 -16825-2 0  9998
2 68007  42.9994  92.9309 0001770 280.3188 359.7055 16.04020760  1895
STARLINK-36911          
1 68008U 26039Y   26062.58336806 -.01133720  43166-3 -16671-2 0  9992
2 68008  42.9995  92.9290 0001806 280.9532 359.7981 16.04141886  1896
STARLINK-36956          
1 68009U 26039Z   26062.58336806 -.01127719  42802-3 -16475-2 0  9992
2 68009  42.9993  92.9271 0001794 281.0417   0.4115 16.04249068  1894
STARLINK-36953          
1 68010U 26039AA  26062.58336806 -.01119137  42331-3 -16099-2 0  9998
2 68010  42.9993  92.9231 0001754 282.6198   0.3392 16.04501255  1896
STARLINK-36991          
1 68011U 26039AB  26062.58336806 -.01112963  41964-3 -15891-2 0  9999
2 68011  42.9993  92.9214 0001787 281.7453   1.9540 16.04622844  1898
STARLINK-36936          
1 68012U 26039AC  26062.58336806 -.01112236  42031-3 -15645-2 0  9996
2 68012  42.9993  92.9175 0001870 280.5022   4.6506 16.04866317  1894
STARLINK-36967          
1 68013U 26039AD  26062.58336806 -.01125370  42698-3 -16320-2 0  9990
2 68013  42.9993  92.9250 0001731 283.1550 359.0318 16.04369451  1895
STARLINK-36985          
1 68014U 26039AE  26062.58336806 -.01109191  41758-3 -15729-2 0  9992
2 68014  42.9993  92.9195 0001760 282.4628   1.9469 16.04734324  1899
